NORAD_CAT_ID,OBJECT_NAME,OBJECT_TYPE,EPOCH,MEAN_MOTION,ECCENTRICITY,INCLINATION,RA_OF_ASC_NODE,ARG_OF_PERICENTER,MEAN_ANOMALY,BSTAR,MEAN_MOTION_DOT,MEAN_MOTION_DDOT,TLE_LINE0,TLE_LINE1,TLE_LINE2,SEMIMAJOR_AXIS,PERIOD,APOGEE,PERIGEE,DECAYED
51971.0,STARLINK-3669,PAYLOAD,2023-01-09 21:05:31,15.08842681,0.0002876,53.2153,173.2801,47.5417,312.5818,5.2845e-05,5.53e-06,0.0,0 STARLINK-3669,1 51971U 22025R   23009.87883773  .00000553  00000-0  52845-4 0  9990,2 51971  53.2153 173.2801 0002876  47.5417 312.5818 15.08842681 46862,6917.871999999999,95.437,541.727,537.748,0.0
51971.0,STARLINK-3669,PAYLOAD,2023-01-10 11:24:00,15.0883813,0.0002818,53.2145,170.6037,52.8781,307.2468,3.9594e-05,3.42e-06,0.0,0 STARLINK-3669,1 51971U 22025R   23010.47500040  .00000342  00000-0  39594-4 0  9993,2 51971  53.2145 170.6037 0002818  52.8781 307.2468 15.08838130 46950,6917.886,95.438,541.701,537.802,0.0
51971.0,STARLINK-3669,PAYLOAD,2023-01-10 19:20:55,15.08844726,0.0002799,53.2144,169.11700000000005,52.9615,307.1633,0.00012068,1.633e-05,0.0,0 STARLINK-3669,1 51971U 22025R   23010.80619631  .00001633  00000-0  12068-3 0  9997,2 51971  53.2144 169.1170 0002799  52.9615 307.1633 15.08844726 47003,6917.866,95.437,541.6669999999998,537.795,0.0
51971.0,STARLINK-3669,PAYLOAD,2023-01-11 09:39:24,15.08835138,0.000276,53.214,166.4409,53.9549,306.1698,1.7243e-05,-1.4e-07,0.0,0 STARLINK-3669,1 51971U 22025R   23011.40236255 -.00000014  00000-0  17243-4 0  9995,2 51971  53.2140 166.4409 0002760  53.9549 306.1698 15.08835138 48209,6917.895,95.438,541.67,537.851,0.0
51971.0,STARLINK-3669,PAYLOAD,2023-01-11 19:11:43,15.08832811,0.0002768999999999,53.2164,164.6593,52.6449,307.4795,0.00017218,2.452e-05,0.0,0 STARLINK-3669,1 51971U 22025R   23011.79980540  .00002452  00000-0  17218-3 0  9998,2 51971  53.2164 164.6593 0002769  52.6449 307.4795 15.08832811 47153,6917.901999999999,95.438,541.683,537.852,0.0
51971.0,STARLINK-3669,PAYLOAD,2023-01-12 19:02:29,15.08849818,0.000265,53.2157,160.1957,57.9823,302.1427,9.6946e-05,1.255e-05,0.0,0 STARLINK-3669,1 51971U 22025R   23012.79339656  .00001255  00000-0  96946-4 0  9991,2 51971  53.2157 160.1957 0002650  57.9823 302.1427 15.08849818 48412,6917.85,95.437,541.549,537.882,0.0
51971.0,STARLINK-3669,PAYLOAD,2023-01-13 02:59:26,15.08834415,0.000307,53.2149,158.709,65.0014,295.1297,5.6211e-05,6.06e-06,0.0,0 STARLINK-3669,1 51971U 22025R   23013.12460886  .00000606  00000-0  56211-4 0  9999,2 51971  53.2149 158.7090 0003070  65.0014 295.1297 15.08834415 48461,6917.897,95.438,541.886,537.639,0.0
51971.0,STARLINK-3669,PAYLOAD,2023-01-13 17:17:54,15.08831887,0.0002586,53.215,156.0318,63.34,296.7856,-2.386e-05,-6.68e-06,0.0,0 STARLINK-3669,1 51971U 22025R   23013.72076989 -.00000668  00000-0 -23860-4 0  9996,2 51971  53.2150 156.0318 0002586  63.3400 296.7856 15.08831887 47443,6917.905,95.438,541.559,537.981,0.0
51971.0,STARLINK-3669,PAYLOAD,2023-01-14 07:36:22,15.08843387,0.0002631999999999,53.2149,153.3579,62.8982,297.2278,0.00019036,2.743e-05,0.0,0 STARLINK-3669,1 51971U 22025R   23014.31692646  .00002743  00000-0  19036-3 0  9999,2 51971  53.2149 153.3579 0002632  62.8982 297.2278 15.08843387 48646,6917.87,95.437,541.556,537.914,0.0
51971.0,STARLINK-3669,PAYLOAD,2023-01-14 15:33:17,15.08853259,0.0002476,53.2143,151.8691,67.9653,292.1602,0.00031648,4.754e-05,0.0,0 STARLINK-3669,1 51971U 22025R   23014.64812053  .00004754  00000-0  31648-3 0  9998,2 51971  53.2143 151.8691 0002476  67.9653 292.1602 15.08853259 48694,6917.84,95.437,541.418,537.992,0.0
51971.0,STARLINK-3669,PAYLOAD,2023-01-15 13:48:41,15.08844516,0.0002308,53.2136,147.7067,63.6782,296.4447,0.00022389,3.277e-05,0.0,0 STARLINK-3669,1 51971U 22025R   23015.57548589  .00003277  00000-0  22389-3 0  9992,2 51971  53.2136 147.7067 0002308  63.6782 296.4447 15.08844516 48833,6917.866999999999,95.437,541.328,538.135,0.0
51971.0,STARLINK-3669,PAYLOAD,2023-01-15 18:34:50,15.08857125,0.0002259,53.2152,146.8121,72.3278,287.7961,0.00043284,6.61e-05,0.0,0 STARLINK-3669,1 51971U 22025R   23015.77420023  .00006610  00000-0  43284-3 0  9997,2 51971  53.2152 146.8121 0002259  72.3278 287.7961 15.08857125 48861,6917.828,95.436,541.256,538.13,0.0
51971.0,STARLINK-3669,PAYLOAD,2023-01-16 13:39:28,15.08855831,0.0002154999999999,53.215,143.2464,81.8301,278.2936,0.0010225,0.0001603,0.0,0 STARLINK-3669,1 51971U 22025R   23016.56907901  .00016030  00000-0  10225-2 0  9995,2 51971  53.2150 143.2464 0002155  81.8301 278.2936 15.08855831 48989,6917.831999999999,95.437,541.188,538.206,0.0
51971.0,STARLINK-3669,PAYLOAD,2023-01-16 16:50:14,15.08865613,0.000208,53.2146,142.6513,79.1859,280.9368,0.0013024,0.00020515,0.0,0 STARLINK-3669,1 51971U 22025R   23016.70155588  .00020515  00000-0  13024-2 0  9990,2 51971  53.2146 142.6513 0002080  79.1859 280.9368 15.08865613 47894,6917.802,95.436,541.106,538.2280000000001,0.0
51971.0,STARLINK-3669,PAYLOAD,2023-01-17 07:08:43,15.08827986,0.0003151,53.2147,139.9752,79.2696,280.8651,0.00016386,2.319e-05,0.0,0 STARLINK-3669,1 51971U 22025R   23017.29772864  .00002319  00000-0  16386-3 0  9994,2 51971  53.2147 139.9752 0003151  79.2696 280.8651 15.08827986 49098,6917.917,95.438,541.962,537.602,0.0
51971.0,STARLINK-3669,PAYLOAD,2023-01-17 15:05:39,15.08823521,0.0002962,53.2151,138.4881,92.3461,267.78700000000003,3.3945e-05,2.51e-06,0.0,0 STARLINK-3669,1 51971U 22025R   23017.62893249  .00000251  00000-0  33945-4 0  9996,2 51971  53.2151 138.4881 0002962  92.3461 267.7870 15.08823521 48036,6917.931,95.439,541.845,537.747,0.0
51971.0,STARLINK-3669,PAYLOAD,2023-01-18 08:34:54,15.08850179,0.0002492,53.2143,135.2172,94.7238,265.4038,0.0014608,0.00023044,0.0,0 STARLINK-3669,1 51971U 22025R   23018.35757707  .00023044  00000-0  14608-2 0  9993,2 51971  53.2143 135.2172 0002492  94.7238 265.4038 15.08850179 49256,6917.849,95.437,541.438,537.99,0.0
51971.0,STARLINK-3669,PAYLOAD,2023-01-18 13:21:03,15.08872266,0.0001821,53.2145,134.3262,93.9097,266.2104,0.0022015999999999,0.00034956,0.0,0 STARLINK-3669,1 51971U 22025R   23018.55629251  .00034956  00000-0  22016-2 0  9993,2 51971  53.2145 134.3262 0001821  93.9097 266.2104 15.08872266 48171,6917.781999999999,95.436,540.906,538.387,0.0
51971.0,STARLINK-3669,PAYLOAD,2023-01-18 14:56:26,15.08880812,0.0001675,53.2144,134.0288,90.1561,269.9623,0.00247,0.00039286,0.0,0 STARLINK-3669,1 51971U 22025R   23018.62253069  .00039286  00000-0  24700-2 0  9994,2 51971  53.2144 134.0288 0001675  90.1561 269.9623 15.08880812 49293,6917.755999999999,95.435,540.779,538.462,0.0
51971.0,STARLINK-3669,PAYLOAD,2023-01-19 06:50:17,15.08854098,0.0002406,53.2149,131.0553,79.4019,280.7244,0.00023933,3.524e-05,0.0,0 STARLINK-3669,1 51971U 22025R   23019.28492606  .00003524  00000-0  23933-3 0  9993,2 51971  53.2149 131.0553 0002406  79.4019 280.7244 15.08854098 49399,6917.837,95.437,541.367,538.038,0.0
51971.0,STARLINK-3669,PAYLOAD,2023-01-19 14:47:13,15.08818409,0.0001743,53.2149,129.5685,78.3573,281.7615,-0.00039643,-6.588e-05,0.0,0 STARLINK-3669,1 51971U 22025R   23019.61613141 -.00006588  00000-0 -39643-3 0  9999,2 51971  53.2149 129.5685 0001743  78.3573 281.7615 15.08818409 49448,6917.946,95.439,541.0169999999999,538.606,0.0
51971.0,STARLINK-3669,PAYLOAD,2023-01-20 00:19:33,15.08827425,0.0001712,53.2147,127.7838,84.7566,275.3622,0.0011569,0.00018166,0.0,0 STARLINK-3669,1 51971U 22025R   23020.01357795  .00018166  00000-0  11569-2 0  9994,2 51971  53.2147 127.7838 0001712  84.7566 275.3622 15.08827425 49507,6917.919,95.438,540.9680000000001,538.599,0.0
51971.0,STARLINK-3669,PAYLOAD,2023-01-20 11:27:15,15.08859246,0.0001764999999999,53.2149,125.7024,81.7355,278.3837,0.0025602,0.00040715,0.0,0 STARLINK-3669,1 51971U 22025R   23020.47725844  .00040715  00000-0  25602-2 0  9996,2 51971  53.2149 125.7024 0001765  81.7355 278.3837 15.08859246 48466,6917.821999999999,95.436,540.908,538.466,0.0
51971.0,STARLINK-3669,PAYLOAD,2023-01-20 16:13:24,15.08879333,0.0001786999999999,53.2147,124.8102,81.2896,278.8299,0.002766,0.00044056,0.0,0 STARLINK-3669,1 51971U 22025R   23020.67597406  .00044056  00000-0  27660-2 0  9997,2 51971  53.2147 124.8102 0001787  81.2896 278.8299 15.08879333 49603,6917.76,95.435,540.861,538.389,0.0
51971.0,STARLINK-3669,PAYLOAD,2023-01-21 06:31:52,15.08840713,0.0001259,53.2161,122.1352,78.6904,281.4229,-8.542700000000001e-05,-1.647e-05,0.0,0 STARLINK-3669,1 51971U 22025R   23021.27213367 -.00001647  00000-0 -85427-4 0  9993,2 51971  53.2161 122.1352 0001259  78.6904 281.4229 15.08840713 49693,6917.878000000001,95.438,540.614,538.872,0.0
51971.0,STARLINK-3669,PAYLOAD,2023-01-21 12:53:25,15.0885033,0.0001705,53.216,120.9476,73.3053,286.8126,0.0017626999999999,0.00027885,0.0,0 STARLINK-3669,1 51971U 22025R   23021.53709657  .00027885  00000-0  17627-2 0  9999,2 51971  53.2160 120.9476 0001705  73.3053 286.8126 15.08850330 49734,6917.849,95.437,540.893,538.534,0.0
51971.0,STARLINK-3669,PAYLOAD,2023-01-22 06:22:39,15.08855545,0.0001854,53.2167,117.6755,106.0731,254.0465,0.0011104,0.00017436,0.0,0 STARLINK-3669,1 51971U 22025R   23022.26573353  .00017436  00000-0  11104-2 0  9997,2 51971  53.2167 117.6755 0001854 106.0731 254.0465 15.08855545 49844,6917.8330000000005,95.437,540.98,538.415,0.0
51971.0,STARLINK-3669,PAYLOAD,2023-01-23 06:13:26,15.088479199999998,0.0001588,53.2159,113.2158,82.4051,277.7122,0.00029424,4.399e-05,0.0,0 STARLINK-3669,1 51971U 22025R   23023.25933308  .00004399  00000-0  29424-3 0  9996,2 51971  53.2159 113.2158 0001588  82.4051 277.7122 15.08847920 49996,6917.856,95.437,540.82,538.623,0.0
51971.0,STARLINK-3669,PAYLOAD,2023-01-24 06:04:13,15.088327599999998,0.0001583,53.215,108.7523,97.179,262.9382,0.00061384,9.493e-05,0.0,0 STARLINK-3669,1 51971U 22025R   23024.25293858  .00009493  00000-0  61384-3 0  9997,2 51971  53.2150 108.7523 0001583  97.1790 262.9382 15.08832760 50149,6917.903,95.438,540.863,538.672,0.0
